LEDSAT                  
1 49069U 21073D   24208.14860715  .00019626  00000+0  75278-3 0  9994
2 49069  97.4351 279.0544 0019672 144.6879 215.5667 15.26347351162394
XW-3 (CAS-9)            
1 50466U 21131B   24208.60115218  .00001037  00000+0  34501-3 0  9995
2 50466  98.5282 293.4884 0004376  25.4202 334.7201 14.39749306135678
TEVEL-3                 
1 50988U 22002E   24208.48124201  .00948608  42151-3  21567-2 0  9998
2 50988  97.3608 287.0236 0010777 249.2418 110.7704 15.97466423141255
TEVEL-8                 
1 50989U 22002F   24208.46958677  .00907370  37677-3  21614-2 0  9990
2 50989  97.3666 287.0931 0011103 249.4959 110.5126 15.96594879141249
TEVEL-1                 
1 51013U 22002AF  24208.46323672  .00867080  33892-3  21077-2 0  9991
2 51013  97.3647 286.8169 0010827 249.0922 110.9195 15.96217596141243
TEVEL-7                 
1 51062U 22002CG  24208.56829874  .01005767  48438-3  22272-2 0  9998
2 51062  97.3622 287.2003 0010706 250.2988 109.7134 15.97962472141266
TEVEL-4                 
1 51063U 22002CH  24208.58579843  .00800569  27859-3  21062-2 0  9991
2 51063  97.3666 287.0181 0010338 247.2622 112.7561 15.94738018141253
TEVEL-2                 
1 51069U 22002CP  24208.47732526  .00953847  42719-3  21601-2 0  9993
2 51069  97.3613 286.9885 0010939 249.5130 110.4973 15.97535986141250
GREENCUBE               
1 53106U 22080B   24206.16680960 -.00000003  00000+0  00000+0 0  9999
2 53106  70.1349 179.6741 0007614  98.9379 261.2142  6.42557625 47640
KAI-1 (RS26S)           
1 53378U 22096J   24207.94895300  .00291208  00000+0  11040-2 0  9997
2 53378  97.3886 129.5458 0008675 131.5470 228.6547 15.86875805110346
CAS-5A (FO-118)         
1 54684U 22167C   24208.60158070  .00035901  00000+0  11326-2 0  9990
2 54684  97.6095 354.4418 0009125   8.1700 351.9689 15.32739268 90339
STRATOSAT-TK 1 (RS52S)  
1 57167U 23091B   24208.56931735  .00018957  00000+0  10497-2 0  9998
2 57167  97.6081 261.5632 0013739 348.4423  11.6491 15.13793944 59513
UMKA 1 (RS40S)          
1 57172U 23091G   24208.61799201  .00006949  00000+0  45267-3 0  9992
2 57172  97.6091 260.2733 0016031 352.4978   7.6008 15.08137921 59437
CUBESX-HSE 3 (RS42S)    
1 57178U 23091N   24208.60165712  .00009589  00000+0  59651-3 0  9996
2 57178  97.6126 260.7895 0016031 346.3231  13.7561 15.09728519 59454
MONITOR-4 (RS57S)       
1 57182U 23091S   24208.60224561  .00008812  00000+0  55649-3 0  9990
2 57182  97.6114 260.5752 0016471 347.6660  12.4163 15.09196552 59443
MONITOR-2 (RS39S)       
1 57184U 23091U   24208.57998468  .00005739  00000+0  37478-3 0  9997
2 57184  97.6113 260.6318 0013244 342.0823  17.9936 15.08160866 59444
SVYATOBOR 1 (RS60S)     
1 57187U 23091X   24208.56030343  .00008778  00000+0  54475-3 0  9990
2 57187  97.6121 261.1248 0012485 338.7516  21.3193 15.09882162 59479
VIZARD-METEO (RS38S)    
1 57189U 23091Z   24208.61023484  .00011142  00000+0  66149-3 0  9996
2 57189  97.6114 261.6349 0011128 336.6665  23.4058 15.11440168 59512
NANOZOND 1 (RS49S)      
1 57190U 23091AA  24208.60791065  .00016357  00000+0  89385-3 0  9994
2 57190  97.6087 262.2736 0009352 340.9518  19.1362 15.14342750 59567
POLYTECH-UNIVERSE 3 (R*)
1 57191U 23091AB  24208.58595542  .00005488  00000+0  35823-3 0  9995
2 57191  97.6081 260.3022 0018951 358.2996   1.8164 15.08120264 59437
UTMN 2 (RS27S)          
1 57203U 23091AP  24208.61458634  .00009660  00000+0  58289-3 0  9990
2 57203  97.6114 261.4725 0011566 336.8401  23.2306 15.10888581 59508
ARCCUBE 1 (RS25S)       
1 57205U 23091AR  24208.62035254  .00019357  00000+0  10180-2 0  9993
2 57205  97.6055 262.4502 0009385 341.1477  18.9407 15.15667013 59587
KUZGTU 1 (RS47S)        
1 57217U 23091AV  24208.61422875  .00009510  00000+0  59424-3 0  9999
2 57217  97.6102 260.6458 0016065 347.4625  12.6202 15.09564263 59456
HADES-D (SO-121)        
1 58567U 23174CY  24208.18249347  .00076312  00000+0  22562-2 0  9999
2 58567  97.4505 284.1499 0010543  99.4837 260.7598 15.34583080 39751
